#aV2021  2 26  0  0  0.00000000     288 DD+AD WGS84 FIT  NGA
## 2146 432000.00000000   300.00000000 59271 0.0000000000000
+   32     1  2  3  4  5  6  7  8  9 10 11 12 13 14 15 16 17
+         18 19 20 21 22 23 24 25 26 27 28 29 30 31 32  0  0
+          0  0  0  0  0  0  0  0  0  0  0  0  0  0  0  0  0
+          0  0  0  0  0  0  0  0  0  0  0  0  0  0  0  0  0
+          0  0  0  0  0  0  0  0  0  0  0  0  0  0  0  0  0
++         2  2  2  2  2  2  2  2  2  2  2  2  2  2  2  2  2
++         2  2  2  2  2  2  2  2  2  2  2  2  2  2  2  0  0
++         0  0  0  0  0  0  0  0  0  0  0  0  0  0  0  0  0
++         0  0  0  0  0  0  0  0  0  0  0  0  0  0  0  0  0
++         0  0  0  0  0  0  0  0  0  0  0  0  0  0  0  0  0
%c cc cc ccc ccc cccc cccc cccc cccc ccccc ccccc ccccc ccccc
%c cc cc ccc ccc cccc cccc cccc cccc ccccc ccccc ccccc ccccc
%f  0.0000000  0.000000000  0.00000000000  0.000000000000000
%f  0.0000000  0.000000000  0.00000000000  0.000000000000000
%i    0    0    0    0      0      0      0      0         0
%i    0    0    0    0      0      0      0      0         0
/*      NGA, ST. LOUIS,MO.                                  
/*   EPHEMERIS COMPUTED FROM 2 DAYS OF DATA                 
/*   EPOCHA v5 SMOOTHER                                     
/*   G2139 IERS2010 SATAF SATAPC                            
*  2021  2 26 16 25  0.00000000
P  1 -13770.792128 -13511.598614 -18650.431058    753.028124                    
V  1  23001.167929    852.621316 -17501.861520     -0.081698                    
P  2 -11286.036353  14109.573900  20138.609701   -580.844098                    
V  2 -24136.644246   -865.115200 -13336.044623     -0.038221                    
P  3 -13125.260005 -23024.354350   2400.317821    -93.519870                    
V  3    848.399701  -3903.977347 -31660.623805     -0.102714                    
P  4  -4394.590494 -17350.857574  19610.270986   -182.857939                    
V  4  15569.524555 -19482.011784 -13804.772812     -0.024887                    
P  5    772.021303  22387.936599  13978.687405    -34.758383                    
V  5 -10698.648432 -14791.455857  24202.485341     -0.010196                    
P  6 -22893.779068   6435.339053  11951.875730     -1.491831                    
V  6 -14867.864435  -2745.228549 -27093.500784      0.014737                    
P  7 -24719.800899  -7359.991454   7667.093867     72.198898                    
V  7   9333.022976  -1749.737359  29237.836727      0.129127                    
P  8   1383.418355 -21520.503459 -15295.492494    -11.748937                    
V  8  12314.147536 -15301.714622  22930.538742     -0.014359                    
P  9 -14015.032584  -6484.655622  21548.812530   -326.455080                    
V  9  14746.152501 -23251.397031   2564.211959     -0.033698                    
P 10  16055.992734   -249.594312 -21091.666858    -69.832551                    
V 10  11438.273657  24424.855257   8114.894832     -0.080417                    
P 11  -5912.301221 -15345.925127 -21317.082833    -13.716690                    
V 11  23962.015935 -10663.636192    683.582483      0.106276                    
P 12   8955.322551  25059.165701  -1629.567368     -6.534880                    
V 12  -2727.378060   -787.448724 -31867.542447     -0.052714                    
P 13 -11644.561408  22234.040671  -8629.800173    101.672931                    
V 13  -8960.452537   6499.914735  29416.362170      0.043634                    
P 14 -16557.222728  -1537.057584 -20725.187476     98.915352                    
V 14  -9697.439612 -24458.591319   9554.111466      0.014678                    
P 15   1813.639626  21609.701305 -15449.863074   -166.752934                    
V 15 -11291.588451  15806.912064  21636.152902      0.026035                    
P 16   3162.587447 -20987.408407  15426.220199   -285.980601                    
V 16   9137.378768  18112.779961  22874.667129     -0.057169                    
P 17 -19678.115669  10391.066909 -14065.601201    400.794423                    
V 17   9843.263936 -15834.869733 -24722.237500      0.064046                    
P 18  25722.352455   5239.088849   4242.342446    348.894479                    
V 18  -5584.166368   2046.278644  31242.980628      0.014082                    
P 19 -19959.001527  15722.786328  -7850.861421    -33.345735                    
V 19   4577.258365  -8668.645286 -30171.213130      0.050280                    
P 20  19924.998911  10755.580901 -14150.393547    524.507473                    
V 20   7998.360130  16132.759548  23340.412776     -0.001679                    
P 21  -5828.324813 -14610.365118 -20735.212262     98.827912                    
V 21  27984.140891   -686.379985  -6704.373108      0.031340                    
P 22  -9242.795397 -24097.699333  -6444.945929   -671.460684                    
V 22   7309.525294   5400.634161 -29583.320123      0.077352                    
P 23  18238.723429  10822.432450 -16035.662205    118.331287                    
V 23   7783.841473  18838.811729  21556.359304     -0.002462                    
P 24   8694.876706  15054.679801 -20411.948817      1.813658                    
V 24 -25387.262588    952.446126  -9839.883302     -0.004249                    
P 25  16937.913597  17442.602873  10755.890834     88.323800                    
V 25   4109.257772  13524.062254 -27462.475219      0.075986                    
P 26   9951.677831 -13172.811024  20704.920643     50.527391                    
V 26  13553.493404  22829.748498   8253.882030      0.054661                    
P 27  11649.254280 -23192.247598  -4781.161670    -83.889418                    
V 27   5405.136822  -3506.857062  31579.147037     -0.073053                    
P 28 -15037.842471   1146.384665 -21285.573175    609.943525                    
V 28  -9550.774911 -26697.395351   5357.377058     -0.055049                    
P 29  13012.305585   7068.379303  22010.071552   -302.170331                    
V 29 -17071.456993  22161.304608   2931.123992     -0.070154                    
P 30 -26272.290310    857.949328  -4532.001205   -390.613763                    
V 30  -5458.468419  -3840.034543  30366.682780     -0.056591                    
P 31  21572.362073  -7736.012077  13734.071935   -102.430531                    
V 31  17142.572634   3609.160055 -24289.655985     -0.022996                    
P 32  19302.042741 -12074.820253 -13437.377505     19.950426                    
V 32  -7498.479273  15779.112561 -24934.292410      0.010699                    
EOF
